{"type": "FeatureCollection", "features": [ {"type": "Feature", "properties": {"norad_id": 54234, "name": "NOAA 21 (JPSS-2)", "group": "weather", "lat": 72.56286581479881, "lon": 127.19749642394456, "alt_km": 819.0348064711852, "timestamp": "2025-12-07T11:27:49.630286+00:00", "meta": {"OBJECT_NAME": "NOAA 21 (JPSS-2)", "OBJECT_ID": "2022-150A", "EPOCH": "2025-12-06T21:26:14.335872", "MEAN_MOTION": 14.19521696, "ECCENTRICITY": 0.0002423, "INCLINATION": 98.7454, "RA_OF_ASC_NODE": 277.2747, "ARG_OF_PERICENTER": 49.069, "MEAN_ANOMALY": 311.0696, "EPHEMERIS_TYPE": 0, "CLASSIFICATION_TYPE": "U", "NORAD_CAT_ID": 54234, "ELEMENT_SET_NO": 999, "REV_AT_EPOCH": 15926, "BSTAR": 0.00011496439, "MEAN_MOTION_DOT": 1.98e-06, "MEAN_MOTION_DDOT": 0}, "tle": {"line1": "1 54234U 22150A   25340.89322148  .00000198  00000+0  11496-3 0  9990", "line2": "2 54234  98.7454 277.2747 0002423  49.0690 311.0696 14.19521696159265"}}, "geometry": {"type": "Point", "coordinates": [127.19749642394456, 72.56286581479881]}}, {"type": "Feature", "properties": {"norad_id": 54743, "name": "METEOSAT-12 (MTG-I1)", "group": "weather", "lat": -0.4647932193980888, "lon": -111.79902174616082, "alt_km": 35778.87402174701, "timestamp": "2025-12-07T11:27:49.630302+00:00", "meta": {"OBJECT_NAME": "METEOSAT-12 (MTG-I1)", "OBJECT_ID": "2022-170C", "EPOCH": "2025-12-06T22:13:29.997696", "MEAN_MOTION": 1.0027445, "ECCENTRICITY": 0.00015388, "INCLINATION": 0.7232, "RA_OF_ASC_NODE": 30.6692, "ARG_OF_PERICENTER": 221.712, "MEAN_ANOMALY": 156.6995, "EPHEMERIS_TYPE": 0, "CLASSIFICATION_TYPE": "U", "NORAD_CAT_ID": 54743, "ELEMENT_SET_NO": 999, "REV_AT_EPOCH": 1105, "BSTAR": 0, "MEAN_MOTION_DOT": -1e-08, "MEAN_MOTION_DDOT": 0}, "tle": {"line1": "1 54743U 22170C   25340.92604164 -.00000001  00000+0  00000+0 0  9991", "line2": "2 54743   0.7232  30.6692 0001538 221.7120 156.6995  1.00274450 11058"}}, "geometry": {"type": "Point", "coordinates": [-111.79902174616082, -0.4647932193980888]}}, {"type": "Feature", "properties": {"norad_id": 55973, "name": "TIANMU-1 03", "group": "weather", "lat": -75.14893739996565, "lon": -65.85654825684355, "alt_km": 454.47112432833455, "timestamp": "2025-12-07T11:27:49.630320+00:00", "meta": {"OBJECT_NAME": "TIANMU-1 03", "OBJECT_ID": "2023-039A", "EPOCH": "2025-12-06T21:52:52.041216", "MEAN_MOTION": 15.40670719, "ECCENTRICITY": 0.00045039, "INCLINATION": 97.5109, "RA_OF_ASC_NODE": 143.4018, "ARG_OF_PERICENTER": 78.2345, "MEAN_ANOMALY": 281.9406, "EPHEMERIS_TYPE": 0, "CLASSIFICATION_TYPE": "U", "NORAD_CAT_ID": 55973, "ELEMENT_SET_NO": 999, "REV_AT_EPOCH": 15116, "BSTAR": 0.00051803904, "MEAN_MOTION_DOT": 0.00021081, "MEAN_MOTION_DDOT": 0}, "tle": {"line1": "1 55973U 23039A   25340.91171344  .00021081  00000+0  51804-3 0  9992", "line2": "2 55973  97.5109 143.4018 0004503  78.2345 281.9406 15.40670719151168"}}, "geometry": {"type": "Point", "coordinates": [-65.85654825684355, -75.14893739996565]}}, {"type": "Feature", "properties": {"norad_id": 55974, "name": "TIANMU-1 04", "group": "weather", "lat": 4.538373477720868, "lon": 142.5768632496716, "alt_km": 444.1891336216586, "timestamp": "2025-12-07T11:27:49.630334+00:00", "meta": {"OBJECT_NAME": "TIANMU-1 04", "OBJECT_ID": "2023-039B", "EPOCH": "2025-12-06T21:25:05.317824", "MEAN_MOTION": 15.41002082, "ECCENTRICITY": 0.00051894, "INCLINATION": 97.5041, "RA_OF_ASC_NODE": 142.5754, "ARG_OF_PERICENTER": 73.7477, "MEAN_ANOMALY": 286.4339, "EPHEMERIS_TYPE": 0, "CLASSIFICATION_TYPE": "U", "NORAD_CAT_ID": 55974, "ELEMENT_SET_NO": 999, "REV_AT_EPOCH": 15116, "BSTAR": 0.00053022925, "MEAN_MOTION_DOT": 0.00021821, "MEAN_MOTION_DDOT": 0}, "tle": {"line1": "1 55974U 23039B   25340.89242266  .00021821  00000+0  53023-3 0  9999", "line2": "2 55974  97.5041 142.5754 0005189  73.7477 286.4339 15.41002082151166"}}, "geometry": {"type": "Point", "coordinates": [142.5768632496716, 4.538373477720868]}}, {"type": "Feature", "properties": {"norad_id": 55975, "name": "TIANMU-1 05", "group": "weather", "lat": 43.193913210914424, "lon": 136.55500379606272, "alt_km": 438.72027511981014, "timestamp": "2025-12-07T11:27:49.630345+00:00", "meta": {"OBJECT_NAME": "TIANMU-1 05", "OBJECT_ID": "2023-039C", "EPOCH": "2025-12-06T21:14:44.550240", "MEAN_MOTION": 15.40627096, "ECCENTRICITY": 0.00043668, "INCLINATION": 97.5087, "RA_OF_ASC_NODE": 143.0602, "ARG_OF_PERICENTER": 95.1079, "MEAN_ANOMALY": 265.0665, "EPHEMERIS_TYPE": 0, "CLASSIFICATION_TYPE": "U", "NORAD_CAT_ID": 55975, "ELEMENT_SET_NO": 999, "REV_AT_EPOCH": 15114, "BSTAR": 0.00052865167, "MEAN_MOTION_DOT": 0.00021484, "MEAN_MOTION_DDOT": 0}, "tle": {"line1": "1 55975U 23039C   25340.88523785  .00021484  00000+0  52865-3 0  9995", "line2": "2 55975  97.5087 143.0602 0004366  95.1079 265.0665 15.40627096151147"}}, "geometry": {"type": "Point", "coordinates": [136.55500379606272, 43.193913210914424]}}, {"type": "Feature", "properties": {"norad_id": 55976, "name": "TIANMU-1 06", "group": "weather", "lat": -8.399457627721894, "lon": 145.2453690670521, "alt_km": 447.42285811312195, "timestamp": "2025-12-07T11:27:49.630356+00:00", "meta": {"OBJECT_NAME": "TIANMU-1 06", "OBJECT_ID": "2023-039D", "EPOCH": "2025-12-06T21:28:30.349344", "MEAN_MOTION": 15.41054475, "ECCENTRICITY": 0.00046819, "INCLINATION": 97.5098, "RA_OF_ASC_NODE": 143.5302, "ARG_OF_PERICENTER": 90.2713, "MEAN_ANOMALY": 269.907, "EPHEMERIS_TYPE": 0, "CLASSIFICATION_TYPE": "U", "NORAD_CAT_ID": 55976, "ELEMENT_SET_NO": 999, "REV_AT_EPOCH": 15116, "BSTAR": 0.00052598356, "MEAN_MOTION_DOT": 0.00021681, "MEAN_MOTION_DDOT": 0}, "tle": {"line1": "1 55976U 23039D   25340.89479571  .00021681  00000+0  52598-3 0  9992", "line2": "2 55976  97.5098 143.5302 0004681  90.2713 269.9070 15.41054475151164"}}, "geometry": {"type": "Point", "coordinates": [145.2453690670521, -8.399457627721894]}}, {"type": "Feature", "properties": {"norad_id": 56232, "name": "FENGYUN 3G", "group": "weather", "lat": 16.59062673668319, "lon": 60.108284876392425, "alt_km": 400.4668955952202, "timestamp": "2025-12-07T11:27:49.630366+00:00", "meta": {"OBJECT_NAME": "FENGYUN 3G", "OBJECT_ID": "2023-055A", "EPOCH": "2025-12-06T22:26:04.669728", "MEAN_MOTION": 15.53134913, "ECCENTRICITY": 0.00092333, "INCLINATION": 49.9942, "RA_OF_ASC_NODE": 257.4002, "ARG_OF_PERICENTER": 120.7601, "MEAN_ANOMALY": 239.4277, "EPHEMERIS_TYPE": 0, "CLASSIFICATION_TYPE": "U", "NORAD_CAT_ID": 56232, "ELEMENT_SET_NO": 999, "REV_AT_EPOCH": 15012, "BSTAR": 0.00069922918, "MEAN_MOTION_DOT": 0.00044561, "MEAN_MOTION_DDOT": 0}, "tle": {"line1": "1 56232U 23055A   25340.93477627  .00044561  00000+0  69923-3 0  9993", "line2": "2 56232  49.9942 257.4002 0009233 120.7601 239.4277 15.53134913150129"}}, "geometry": {"type": "Point", "coordinates": [60.108284876392425, 16.59062673668319]}}, {"type": "Feature", "properties": {"norad_id": 57166, "name": "METEOR-M2 3", "group": "weather", "lat": -71.47649446391745, "lon": 62.09220500650286, "alt_km": 819.392212998524, "timestamp": "2025-12-07T11:27:49.630377+00:00", "meta": {"OBJECT_NAME": "METEOR-M2 3", "OBJECT_ID": "2023-091A", "EPOCH": "2025-12-06T22:19:04.891008", "MEAN_MOTION": 14.24025063, "ECCENTRICITY": 0.00042262, "INCLINATION": 98.6387, "RA_OF_ASC_NODE": 34.5706, "ARG_OF_PERICENTER": 24.717, "MEAN_ANOMALY": 335.421, "EPHEMERIS_TYPE": 0, "CLASSIFICATION_TYPE": "U", "NORAD_CAT_ID": 57166, "ELEMENT_SET_NO": 999, "REV_AT_EPOCH": 12715, "BSTAR": 5.1777164e-05, "MEAN_MOTION_DOT": 7.5e-07, "MEAN_MOTION_DDOT": 0}, "tle": {"line1": "1 57166U 23091A   25340.92991772  .00000075  00000+0  51777-4 0  9992", "line2": "2 57166  98.6387  34.5706 0004226  24.7170 335.4210 14.24025063127159"}}, "geometry": {"type": "Point", "coordinates": [62.09220500650286, -71.47649446391745]}}, {"type": "Feature", "properties": {"norad_id": 57399, "name": "TIANMU-1 07", "group": "weather", "lat": -52.429552256009295, "lon": 41.020523411670304, "alt_km": 492.1660994339545, "timestamp": "2025-12-07T11:27:49.630387+00:00", "meta": {"OBJECT_NAME": "TIANMU-1 07", "OBJECT_ID": "2023-101A", "EPOCH": "2025-12-06T21:32:59.929440", "MEAN_MOTION": 15.27945246, "ECCENTRICITY": 0.00056048, "INCLINATION": 97.288, "RA_OF_ASC_NODE": 30.8772, "ARG_OF_PERICENTER": 96.1764, "MEAN_ANOMALY": 264.0114, "EPHEMERIS_TYPE": 0, "CLASSIFICATION_TYPE": "U", "NORAD_CAT_ID": 57399, "ELEMENT_SET_NO": 999, "REV_AT_EPOCH": 13226, "BSTAR": 0.00043098546, "MEAN_MOTION_DOT": 0.00011692, "MEAN_MOTION_DDOT": 0}, "tle": {"line1": "1 57399U 23101A   25340.89791585  .00011692  00000+0  43099-3 0  9992", "line2": "2 57399  97.2880  30.8772 0005604  96.1764 264.0114 15.27945246132261"}}, "geometry": {"type": "Point", "coordinates": [41.020523411670304, -52.429552256009295]}}, {"type": "Feature", "properties": {"norad_id": 57400, "name": "TIANMU-1 08", "group": "weather", "lat": 50.20241182552877, "lon": -139.9215264151883, "alt_km": 472.9856313164137, "timestamp": "2025-12-07T11:27:49.630397+00:00", "meta": {"OBJECT_NAME": "TIANMU-1 08", "OBJECT_ID": "2023-101B", "EPOCH": "2025-12-06T20:45:18.484992", "MEAN_MOTION": 15.27929578, "ECCENTRICITY": 0.00075615, "INCLINATION": 97.2869, "RA_OF_ASC_NODE": 30.6439, "ARG_OF_PERICENTER": 100.181, "MEAN_ANOMALY": 260.0283, "EPHEMERIS_TYPE": 0, "CLASSIFICATION_TYPE": "U", "NORAD_CAT_ID": 57400, "ELEMENT_SET_NO": 999, "REV_AT_EPOCH": 13225, "BSTAR": 0.00040486226, "MEAN_MOTION_DOT": 0.00010977, "MEAN_MOTION_DDOT": 0}, "tle": {"line1": "1 57400U 23101B   25340.86479728  .00010977  00000+0  40486-3 0  9996", "line2": "2 57400  97.2869  30.6439 0007561 100.1810 260.0283 15.27929578132253"}}, "geometry": {"type": "Point", "coordinates": [-139.9215264151883, 50.20241182552877]}}]}